[{"OBJECT_NAME":"LEO 3","OBJECT_ID":"2023-100G","EPOCH":"2026-03-09T21:30:59.468832","MEAN_MOTION":13.68417596,"ECCENTRICITY":0.00174207,"INCLINATION":99.5469,"RA_OF_ASC_NODE":194.2149,"ARG_OF_PERICENTER":270.7947,"MEAN_ANOMALY":89.1202,"EPHEMERIS_TYPE":0,"CLASSIFICATION_TYPE":"U","NORAD_CAT_ID":57392,"ELEMENT_SET_NO":999,"REV_AT_EPOCH":13206,"BSTAR":5.3471744e-5,"MEAN_MOTION_DOT":1.0e-8,"MEAN_MOTION_DDOT":0},{"OBJECT_NAME":"THORAD AGENA D DEB","OBJECT_ID":"1970-025JU","EPOCH":"2026-03-09T14:29:20.786784","MEAN_MOTION":13.65302474,"ECCENTRICITY":0.0002179,"INCLINATION":100.0867,"RA_OF_ASC_NODE":295.5364,"ARG_OF_PERICENTER":62.2226,"MEAN_ANOMALY":355.6766,"EPHEMERIS_TYPE":0,"CLASSIFICATION_TYPE":"U","NORAD_CAT_ID":5151,"ELEMENT_SET_NO":999,"REV_AT_EPOCH":27019,"BSTAR":0.00055692,"MEAN_MOTION_DOT":4.05e-6,"MEAN_MOTION_DDOT":0}]
